[{"OBJECT_NAME":"NUSAT-33 (ALBANIA-2)","OBJECT_ID":"2023-001AQ","EPOCH":"2026-03-09T22:33:27.663264","MEAN_MOTION":15.26923259,"ECCENTRICITY":0.00076854,"INCLINATION":97.3178,"RA_OF_ASC_NODE":131.8399,"ARG_OF_PERICENTER":52.546,"MEAN_ANOMALY":307.6477,"EPHEMERIS_TYPE":0,"CLASSIFICATION_TYPE":"U","NORAD_CAT_ID":55047,"ELEMENT_SET_NO":999,"REV_AT_EPOCH":17716,"BSTAR":0.0004947656,"MEAN_MOTION_DOT":0.00013029,"MEAN_MOTION_DDOT":0},{"OBJECT_NAME":"STARLINK-31086","OBJECT_ID":"2023-203J","EPOCH":"2026-03-09T09:56:08.300544","MEAN_MOTION":15.27576315,"ECCENTRICITY":0.00011445,"INCLINATION":43.0011,"RA_OF_ASC_NODE":68.2659,"ARG_OF_PERICENTER":238.1492,"MEAN_ANOMALY":121.9249,"EPHEMERIS_TYPE":0,"CLASSIFICATION_TYPE":"U","NORAD_CAT_ID":58626,"ELEMENT_SET_NO":999,"REV_AT_EPOCH":12352,"BSTAR":-3.0981804e-5,"MEAN_MOTION_DOT":-1.114e-5,"MEAN_MOTION_DDOT":0}]
